[
    {
        "Altitude(m)": 607895.8152839207,
        "Argument of Periapsis(deg)": 0.0,
        "Eccentricity": 0.0,
        "Inclination(deg)": 60.0,
        "Latitude(deg)": 40.998333901578214,
        "Longitude(deg)": 0.08855873158854767,
        "Mean Anomaly(deg)": -229.09089999999998,
        "RAAN(deg)": 310.0,
        "Satellite Name": "Test1 1372",
        "Satellite Number": 1372,
        "Semi-Major Axis(m)": 6980739.136638005,
        "Time(s)": 0
    },
    {
        "Altitude(m)": 607795.1284537634,
        "Argument of Periapsis(deg)": 0.00010418945913296404,
        "Eccentricity": 0.0,
        "Inclination(deg)": 60.0,
        "Latitude(deg)": 40.53065903225075,
        "Longitude(deg)": 0.5851539496955229,
        "Mean Anomaly(deg)": -228.47079385453813,
        "RAAN(deg)": 309.99957995086027,
        "Satellite Name": "Test1 1372",
        "Satellite Number": 1372,
        "Semi-Major Axis(m)": 6980739.136638005,
        "Time(s)": 10
    }
]